293P/Spacewatch,e,9.0565,78.4113,41.0602,3.644215,0.1416766,0.41829803,0.5272,12/23.0/2020,2000,g 14.5,4.0
# From MPEC 2020-SI8
294P/LINEAR,e,18.2269,312.5911,235.5054,3.206689,0.1716401,0.59510047,66.7724,12/23.0/2020,2000,g 15.5,4.0
# From MPC 93589
295P/LINEAR,e,21.0732,7.4185,72.9285,5.306553,0.0806279,0.61603957,195.4186,12/23.0/2020,2000,g 12.0,4.0
# From MPEC 2020-SI8
296P/Garradd,e,25.2327,263.6391,350.1240,3.498044,0.1506490,0.47873844,14.4743,12/23.0/2020,2000,g 14.0,4.0
# From MPC102956
297P/Beshore,e,10.3286,97.6593,132.4969,3.442109,0.1543360,0.31919238,355.2383,12/23.0/2020,2000,g 15.0,4.0
# From MPC114609
298P/Christensen,e,7.8702,52.8231,100.6877,3.592627,0.1447391,0.38675517,15.5799,12/23.0/2020,2000,g 15.0,4.0
# From MPC101100
299P/Catalina-PANSTARRS,e,10.4762,271.6253,323.9011,4.384524,0.1073545,0.28171160,228.5321,12/23.0/2020,2000,g 11.5,4.0
# From MPC114609
300P/Catalina,e,5.6758,95.6645,222.8776,2.700062,0.2221485,0.69175369,173.6471,12/23.0/2020,2000,g 16.0,4.0
# From MPC 89014
301P/LINEAR-NEAT,e,10.3420,351.1774,193.7154,5.738328,0.0717011,0.58545716,165.4769,12/23.0/2020,2000,g 13.0,4.0
# From MPEC 2020-HN5
302P/Lemmon-PANSTARRS,e,6.0342,121.7549,208.2086,4.276842,0.1114344,0.22999701,188.9395,12/23.0/2020,2000,g 12.5,4.0
# From MPC 92278
303P/NEAT,e,7.0197,347.9702,356.8676,5.048406,0.0868906,0.51040087,196.3235,12/23.0/2020,2000,g 13.5,4.0
# From MPEC 2020-N08
304P/Ory,e,2.6067,58.9355,335.2305,3.150275,0.1762712,0.60046634,23.3724,12/23.0/2020,2000,g 16.5,4.0
# From MPC101100
305P/Skiff,e,11.6454,240.1244,147.2749,4.644519,0.0984675,0.69303820,219.5929,12/23.0/2020,2000,g 18.0,4.0
# From MPC 92278
306P/LINEAR,e,8.3107,341.3773,0.8265,3.122566,0.1786227,0.59327530,59.8581,12/23.0/2020,2000,g 19.0,4.0
# From MPC 92278
307P/LINEAR,e,4.4331,158.1416,222.1429,5.793848,0.0706730,0.67440201,155.0960,12/23.0/2020,2000,g 15.0,4.0
# From MPC109148
308P/Lagerkvist-Carsenty,e,4.8501,63.0949,333.6020,6.605832,0.0580514,0.36307021,119.4925,12/23.0/2020,2000,g 13.0,2.0
# From MPC 94284
309P/LINEAR,e,17.0232,10.1400,49.9719,4.371322,0.1078412,0.61759102,231.3410,12/23.0/2020,2000,g 15.0,4.0
# From MPC 98566
310P/Hill,e,13.1279,8.9253,31.8466,4.177966,0.1154135,0.42175949,240.4301,12/23.0/2020,2000,g 13.5,4.0
# From MPC109593
311P/PANSTARRS,e,4.9699,279.2277,144.5856,2.188755,0.3043746,0.11543992,23.3025,12/23.0/2020,2000,g 17.0,4.0
# From MPEC 2020-W26
312P/NEAT,e,19.7684,144.6701,207.5308,3.466050,0.1527397,0.42780446,13.5947,12/23.0/2020,2000,g 16.0,4.0
# From MPEC 2020-W26
313P/Gibbs,e,10.9832,105.9728,254.6507,3.161833,0.1753055,0.23491586,44.1199,12/23.0/2020,2000,g 15.0,4.0
# From MPC105243
314P/Montani,e,3.9794,267.6174,214.1794,7.272418,0.0502558,0.41607970,77.2201,12/23.0/2020,2000,g  9.5,4.0
# From MPC115888
315P/LONEOS,e,17.7818,69.0091,65.6682,4.939165,0.0897891,0.52193460,133.2083,12/23.0/2020,2000,g 11.0,4.0
# From MPC 92279
316P/LONEOS-Christensen,e,9.8604,246.7048,193.6023,4.355669,0.1084231,0.15855640,205.1337,12/23.0/2020,2000,g 13.5,4.0
# From MPEC 2020-C98
317P/WISE,e,11.9505,275.5186,334.9085,2.965546,0.1929955,0.57049282,16.9479,12/23.0/2020,2000,g 17.5,4.0
# From MPC102103
318P/McNaught-Hartley,e,17.8750,35.6153,313.1415,7.497345,0.0480112,0.67509243,90.5874,12/23.0/2020,2000,g  8.5,6.0
# From MPC 97499
319P/Catalina-McNaught,e,15.0951,111.3780,203.6351,3.568142,0.1462315,0.66658308,292.2329,12/23.0/2020,2000,g 15.0,4.0
# From MPC 96281
320P/McNaught,e,4.9089,295.9302,0.7770,3.094013,0.1811010,0.68575568,355.4467,12/23.0/2020,2000,g 20.5,4.0
# From MPC105243
321P/SOHO,e,20.0633,165.0318,172.7333,2.423273,0.2612767,0.98108704,0.0000,01/17.2723/2020,2000,g 20.0,4.0
# From MPC102103
322P/SOHO,e,11.4617,351.4820,56.9203,2.508116,0.2481319,0.97978168,0.0000,08/31.4643/2019,2000,g 19.0,4.0
# From MPEC 2016-Y36
323P/SOHO,e,5.3386,324.3752,353.0524,2.581929,0.2375678,0.98484229,0.0000,01/17.7618/2021,2000,g 20.0,4.0
# From MPC108598
324P/La Sagra,e,21.4134,270.6410,57.7767,3.097747,0.1807737,0.15475384,335.6979,12/23.0/2020,2000,g 13.0,4.0
# From MPC114609
325P/Yang-Gao,e,16.6969,257.5749,343.6861,3.524047,0.1489847,0.59362768,291.3016,12/23.0/2020,2000,g 14.0,4.0
# From MPC103849
326P/Hill,e,2.4708,99.8124,278.5853,4.064042,0.1203003,0.31748909,227.3004,12/23.0/2020,2000,g 13.5,4.0
# From MPC 97499
327P/Van Ness,e,36.2472,173.9769,185.0253,3.562623,0.1465714,0.56290445,269.3406,12/23.0/2020,2000,g 16.0,4.0
# From MPC109148
328P/LONEOS-Tucker,e,17.6705,341.6265,30.4810,4.195431,0.1146936,0.55185334,209.3574,12/23.0/2020,2000,g 14.5,4.0
# From MPC101101
329P/LINEAR-Catalina,e,21.6672,87.6810,343.5422,5.192311,0.0833035,0.67695124,154.1182,12/23.0/2020,2000,g 13.5,4.0
# From MPC105243
330P/Catalina,e,15.6942,293.0958,188.9889,6.631098,0.0577199,0.54847924,91.1462,12/23.0/2020,2000,g 12.0,4.0
# From MPEC 2020-W26
331P/Gibbs,e,9.7393,216.7782,183.7887,3.003674,0.1893323,0.04076865,15.9352,12/23.0/2020,2000,g 12.0,4.0
# From MPEC 2016-K18
332P/Ikeya-Murakami,e,9.3800,3.7901,152.3546,3.088734,0.1815655,0.48944344,316.7068,12/23.0/2020,2000,g 18.0,4.0
# From MPEC 2016-EI8
332P-B/Ikeya-Murakami,e,9.3805,3.8028,152.3711,3.082329,0.1821317,0.48970701,359.9699,03/17.0/2016,2000,g 19.0,4.0
# From MPEC 2016-K18
332P-C/Ikeya-Murakami,e,9.3791,3.7905,152.3459,3.088700,0.1815685,0.48944888,316.7203,12/23.0/2020,2000,g 16.5,4.0
# From MPEC 2016-ED0
332P-D/Ikeya-Murakami,e,9.3761,3.7923,152.4393,3.081138,0.1822373,0.48977814,359.9486,03/17.0/2016,2000,g 19.0,4.0
# From MPEC 2016-ED0
332P-E/Ikeya-Murakami,e,9.3774,3.8228,152.2825,3.079877,0.1823493,0.48922008,359.9889,03/17.0/2016,2000,g 21.0,4.0
# From MPEC 2016-ED0
332P-F/Ikeya-Murakami,e,9.5293,3.4757,152.8203,3.163214,0.1751908,0.49918860,359.8501,03/17.0/2016,2000,g 21.0,4.0
# From MPEC 2016-ED0
332P-G/Ikeya-Murakami,e,9.2523,3.6955,154.4000,3.050519,0.1849880,0.49200362,359.9006,03/19.0/2016,2000,g 19.0,4.0
# From MPC100285
332P-H/Ikeya-Murakami,e,9.3796,3.7903,152.3466,3.088883,0.1815523,0.48948401,316.6591,12/23.0/2020,2000,g 19.0,4.0
# From MPEC 2016-ED0
332P-I/Ikeya-Murakami,e,9.3791,3.8048,152.3297,3.081767,0.1821815,0.48955490,359.9360,03/17.0/2016,2000,g 20.5,2.0
# From MPEC 2016-EI8
332P-J/Ikeya-Murakami,e,9.4296,3.6729,152.7712,3.115165,0.1792596,0.49429435,359.8613,03/17.0/2016,2000,g 20.5,2.0
# From MPEC 2020-L06
333P/LINEAR,e,131.9812,115.6263,26.0229,4.218967,0.1137352,0.73671797,196.4559,12/23.0/2020,2000,g 15.0,4.0
# From MPC115888
334P/NEAT,e,20.4547,90.7063,89.9879,6.838034,0.0551197,0.35254640,71.3265,12/23.0/2020,2000,g 10.5,4.0
# From MPC100285
335P/Gibbs,e,7.2928,330.8456,162.2440,3.578556,0.1455936,0.54553572,273.0513,12/23.0/2020,2000,g 17.0,4.0
# From MPC105244
336P/McNaught,e,17.8340,298.2270,308.7462,5.031283,0.0873345,0.44538450,123.9385,12/23.0/2020,2000,g 13.5,4.0
# From MPC115888
337P/WISE,e,15.3730,106.0712,160.9894,3.287529,0.1653483,0.49685741,268.2281,12/23.0/2020,2000,g 17.0,4.0
# From MPC104796
338P/McNaught,e,25.3746,9.7876,4.3965,3.897802,0.1280779,0.41121657,191.0205,12/23.0/2020,2000,g 12.0,4.0
# From MPC101101
339P/Gibbs,e,5.7347,172.7406,27.5220,3.696039,0.1387073,0.63572232,223.9182,12/23.0/2020,2000,g 17.0,4.0
# From MPC102957
340P/Boattini,e,2.0796,291.7266,35.8126,4.251460,0.1124338,0.28068474,167.9662,12/23.0/2020,2000,g 13.0,4.0
# From MPEC 2020-W26
341P/Gibbs,e,3.7950,29.9884,312.1273,4.294069,0.1107645,0.41528788,184.9069,12/23.0/2020,2000,g 12.5,4.0
# From MPC101101
342P/SOHO,e,11.6810,28.2836,72.7373,3.043704,0.1856096,0.98291048,0.0000,10/19.2357/2021,2000,g  9.0,4.0
# From MPC109148
343P/NEAT-LONEOS,e,5.5836,257.2235,137.3711,5.461283,0.0772257,0.58395540,110.0445,12/23.0/2020,2000,g 14.0,4.0
# From MPC109148
344P/Read,e,3.4904,273.1841,140.3927,4.866780,0.0917997,0.42166653,138.9338,12/23.0/2020,2000,g 13.0,4.0
# From MPC109148
345P/LINEAR,e,2.7268,154.5011,196.3652,4.039629,0.1213925,0.22079363,196.6468,12/23.0/2020,2000,g 12.0,4.0
# From MPC110086
346P/Catalina,e,22.1858,102.4678,335.9988,4.476260,0.1040713,0.50229712,146.5666,12/23.0/2020,2000,g 14.0,4.0
# From MPC108599
347P/PANSTARRS,e,11.7484,261.0383,98.3098,3.606734,0.1438907,0.38554861,224.8529,12/23.0/2020,2000,g 15.0,4.0
# From MPEC 2020-SI8
348P/PANSTARRS,e,17.7405,312.9419,135.5376,3.151888,0.1761359,0.30668363,286.6880,12/23.0/2020,2000,g 14.0,4.0
# From MPC112394
349P/Lemmon,e,5.4910,331.7457,256.0522,3.572527,0.1459624,0.29922725,177.3655,12/23.0/2020,2000,g 14.0,4.0
# From MPC111775
350P/McNaught,e,7.3565,65.3622,140.5109,4.094108,0.1189776,0.09111387,131.1127,12/23.0/2020,2000,g 14.0,4.0
# From MPC105244
351P/Wiegert-PANSTARRS,e,12.7896,283.4494,352.6447,4.437220,0.1054478,0.29601448,196.2469,12/23.0/2020,2000,g 12.5,4.0
# From MPC110086
352P/Skiff,e,21.0088,28.0844,309.1566,6.636140,0.0576542,0.61817749,73.7778,12/23.0/2020,2000,g 11.5,4.0
# From MPEC 2020-AA5
353P/McNaught,e,28.4251,121.5628,230.3758,4.171421,0.1156853,0.46998281,126.9567,12/23.0/2020,2000,g 14.5,4.0
# From MPC105545
354P/LINEAR,e,5.2556,320.1293,133.0194,2.289881,0.2844361,0.12566249,68.1557,12/23.0/2020,2000,g 15.5,4.0
# From MPEC 2020-AA5
355P/LINEAR-NEAT,e,11.0372,51.4368,336.2491,3.472328,0.1523256,0.50695817,177.7868,12/23.0/2020,2000,g 15.5,2.0
# From MPC109148
356P/WISE,e,9.6359,160.7911,226.0137,4.160416,0.1161446,0.35476572,127.9776,12/23.0/2020,2000,g 14.0,4.0
# From MPC114609
357P/Hill,e,6.3104,44.5769,1.4120,4.461470,0.1045893,0.43458209,98.2264,12/23.0/2020,2000,g 15.5,4.0
# From MPEC 2020-HN5
358P/PANSTARRS,e,11.0573,85.7118,299.7295,3.148197,0.1764458,0.23822155,174.0640,12/23.0/2020,2000,g 18.0,4.0
# From MPC110086
359P/LONEOS,e,10.2660,149.7569,200.1386,4.639579,0.0986248,0.32397610,120.2986,12/23.0/2020,2000,g 13.5,4.0
# From MPC108599
360P/WISE,e,24.0997,2.1915,354.1176,3.702703,0.1383330,0.49871830,169.0228,12/23.0/2020,2000,g 19.5,6.0
# From MPC114609
361P/Spacewatch,e,13.8890,203.2522,219.0857,4.939892,0.0897693,0.43787605,81.2295,12/23.0/2020,2000,g 12.0,4.0
# From MPEC 2017-V13
